1 32500U 08007A   18324.14468353 -.00000246  00000-0  00000+0 0
2 32500   1.9516  87.1505 0002106 163.0043   4.0629  1.0027191939290